{"type": "FeatureCollection", "features": [ {"type": "Feature", "properties": {"norad_id": 66955, "name": "HULIANWANG DIGUI-116", "group": "last-30-days", "lat": 85.70564007365356, "lon": 110.74599291438632, "alt_km": 997.1534015316747, "timestamp": "2025-12-14T09:36:21.781811+00:00", "meta": {"OBJECT_NAME": "HULIANWANG DIGUI-116", "OBJECT_ID": "2025-287C", "EPOCH": "2025-12-13T10:20:59.705376", "MEAN_MOTION": 13.68903032, "ECCENTRICITY": 0.00080398, "INCLINATION": 86.4909, "RA_OF_ASC_NODE": 345.8981, "ARG_OF_PERICENTER": 196.0831, "MEAN_ANOMALY": 164.0075, "EPHEMERIS_TYPE": 0, "CLASSIFICATION_TYPE": "U", "NORAD_CAT_ID": 66955, "ELEMENT_SET_NO": 999, "REV_AT_EPOCH": 62, "BSTAR": 2.6516237e-05, "MEAN_MOTION_DOT": 3.9e-07, "MEAN_MOTION_DDOT": 0}, "tle": {"line1": "1 66955U 25287C   25347.43124659  .00000039  00000+0  26516-4 0  9995", "line2": "2 66955  86.4909 345.8981 0008039 196.0831 164.0075 13.68903032   621"}}, "geometry": {"type": "Point", "coordinates": [110.74599291438632, 85.70564007365356]}}, {"type": "Feature", "properties": {"norad_id": 66956, "name": "HULIANWANG DIGUI-117", "group": "last-30-days", "lat": 84.11122537781921, "lon": 129.11997176342632, "alt_km": 995.9358320833635, "timestamp": "2025-12-14T09:36:21.781821+00:00", "meta": {"OBJECT_NAME": "HULIANWANG DIGUI-117", "OBJECT_ID": "2025-287D", "EPOCH": "2025-12-11T19:45:00.614592", "MEAN_MOTION": 13.6901764, "ECCENTRICITY": 0.00072845, "INCLINATION": 86.4968, "RA_OF_ASC_NODE": 346.4938, "ARG_OF_PERICENTER": 195.1574, "MEAN_ANOMALY": 164.9368, "EPHEMERIS_TYPE": 0, "CLASSIFICATION_TYPE": "U", "NORAD_CAT_ID": 66956, "ELEMENT_SET_NO": 999, "REV_AT_EPOCH": 40, "BSTAR": 1.8810541e-05, "MEAN_MOTION_DOT": 3.3e-07, "MEAN_MOTION_DDOT": 0}, "tle": {"line1": "1 66956U 25287D   25345.82292378  .00000033  00000+0  18811-4 0  9994", "line2": "2 66956  86.4968 346.4938 0007284 195.1574 164.9368 13.69017640   403"}}, "geometry": {"type": "Point", "coordinates": [129.11997176342632, 84.11122537781921]}}, {"type": "Feature", "properties": {"norad_id": 66957, "name": "HULIANWANG DIGUI-118", "group": "last-30-days", "lat": 82.160325948919, "lon": 139.11458365354102, "alt_km": 995.1598228997682, "timestamp": "2025-12-14T09:36:21.781831+00:00", "meta": {"OBJECT_NAME": "HULIANWANG DIGUI-118", "OBJECT_ID": "2025-287E", "EPOCH": "2025-12-12T16:47:31.774848", "MEAN_MOTION": 13.69137019, "ECCENTRICITY": 0.00072192, "INCLINATION": 86.4945, "RA_OF_ASC_NODE": 346.17, "ARG_OF_PERICENTER": 190.5502, "MEAN_ANOMALY": 169.5507, "EPHEMERIS_TYPE": 0, "CLASSIFICATION_TYPE": "U", "NORAD_CAT_ID": 66957, "ELEMENT_SET_NO": 999, "REV_AT_EPOCH": 52, "BSTAR": -0.00019372766, "MEAN_MOTION_DOT": -1.51e-06, "MEAN_MOTION_DDOT": 0}, "tle": {"line1": "1 66957U 25287E   25346.69967332 -.00000151  00000+0 -19373-3 0  9996", "line2": "2 66957  86.4945 346.1700 0007219 190.5502 169.5507 13.69137019   523"}}, "geometry": {"type": "Point", "coordinates": [139.11458365354102, 82.160325948919]}}, {"type": "Feature", "properties": {"norad_id": 66958, "name": "CZ-6A R/B", "group": "last-30-days", "lat": -60.04893010488193, "lon": 171.55631297130338, "alt_km": 980.8471667917056, "timestamp": "2025-12-14T09:36:21.781842+00:00", "meta": {"OBJECT_NAME": "CZ-6A R/B", "OBJECT_ID": "2025-287F", "EPOCH": "2025-12-13T11:48:30.515040", "MEAN_MOTION": 13.94919569, "ECCENTRICITY": 0.01072442, "INCLINATION": 86.5058, "RA_OF_ASC_NODE": 345.8146, "ARG_OF_PERICENTER": 99.8935, "MEAN_ANOMALY": 261.4365, "EPHEMERIS_TYPE": 0, "CLASSIFICATION_TYPE": "U", "NORAD_CAT_ID": 66958, "ELEMENT_SET_NO": 999, "REV_AT_EPOCH": 64, "BSTAR": 0.00015378722, "MEAN_MOTION_DOT": 2.36e-06, "MEAN_MOTION_DDOT": 0}, "tle": {"line1": "1 66958U 25287F   25347.49201985  .00000236  00000+0  15379-3 0  9995", "line2": "2 66958  86.5058 345.8146 0107244  99.8935 261.4365 13.94919569   643"}}, "geometry": {"type": "Point", "coordinates": [171.55631297130338, -60.04893010488193]}}, {"type": "Feature", "properties": {"norad_id": 66988, "name": "YAOGAN-47", "group": "last-30-days", "lat": 81.61373289559451, "lon": -62.72350894596596, "alt_km": 488.380788453901, "timestamp": "2025-12-14T09:36:21.781854+00:00", "meta": {"OBJECT_NAME": "YAOGAN-47", "OBJECT_ID": "2025-289A", "EPOCH": "2025-12-11T14:58:29.248032", "MEAN_MOTION": 15.23120362, "ECCENTRICITY": 8.584e-05, "INCLINATION": 97.5268, "RA_OF_ASC_NODE": 50.7421, "ARG_OF_PERICENTER": 73.685, "MEAN_ANOMALY": 286.448, "EPHEMERIS_TYPE": 0, "CLASSIFICATION_TYPE": "U", "NORAD_CAT_ID": 66988, "ELEMENT_SET_NO": 999, "REV_AT_EPOCH": 37, "BSTAR": 0.00024920475, "MEAN_MOTION_DOT": 5.809e-05, "MEAN_MOTION_DDOT": 0}, "tle": {"line1": "1 66988U 25289A   25345.62394963  .00005809  00000+0  24920-3 0  9995", "line2": "2 66988  97.5268  50.7421 0000858  73.6850 286.4480 15.23120362   372"}}, "geometry": {"type": "Point", "coordinates": [-62.72350894596596, 81.61373289559451]}}, {"type": "Feature", "properties": {"norad_id": 66989, "name": "CZ-4B R/B", "group": "last-30-days", "lat": 11.833016379232049, "lon": -124.5493651669179, "alt_km": 465.6598129835429, "timestamp": "2025-12-14T09:36:21.781865+00:00", "meta": {"OBJECT_NAME": "CZ-4B R/B", "OBJECT_ID": "2025-289B", "EPOCH": "2025-12-13T16:02:25.249920", "MEAN_MOTION": 15.67459414, "ECCENTRICITY": 0.01485383, "INCLINATION": 97.5267, "RA_OF_ASC_NODE": 53.0784, "ARG_OF_PERICENTER": 359.4368, "MEAN_ANOMALY": 0.6701, "EPHEMERIS_TYPE": 0, "CLASSIFICATION_TYPE": "U", "NORAD_CAT_ID": 66989, "ELEMENT_SET_NO": 999, "REV_AT_EPOCH": 71, "BSTAR": 0.00073842514, "MEAN_MOTION_DOT": 0.00148608, "MEAN_MOTION_DDOT": 8.458405e-06}, "tle": {"line1": "1 66989U 25289B   25347.66834780  .00148608  84584-5  73843-3 0  9996", "line2": "2 66989  97.5267  53.0784 0148538 359.4368   0.6701 15.67459414   718"}}, "geometry": {"type": "Point", "coordinates": [-124.5493651669179, 11.833016379232049]}}, {"type": "Feature", "properties": {"norad_id": 66990, "name": "TJS-22", "group": "last-30-days", "lat": -5.185302644980526, "lon": -74.19062875381428, "alt_km": 32196.769398342043, "timestamp": "2025-12-14T09:36:21.781877+00:00", "meta": {"OBJECT_NAME": "TJS-22", "OBJECT_ID": "2025-290A", "EPOCH": "2025-12-10T07:11:32.845344", "MEAN_MOTION": 2.15443148, "ECCENTRICITY": 0.6664534, "INCLINATION": 20.1261, "RA_OF_ASC_NODE": 301.1464, "ARG_OF_PERICENTER": 180.6877, "MEAN_ANOMALY": 177.6237, "EPHEMERIS_TYPE": 0, "CLASSIFICATION_TYPE": "U", "NORAD_CAT_ID": 66990, "ELEMENT_SET_NO": 999, "REV_AT_EPOCH": 3, "BSTAR": 0.079788243, "MEAN_MOTION_DOT": -3.8e-07, "MEAN_MOTION_DDOT": 0}, "tle": {"line1": "1 66990U 25290A   25344.29968571 -.00000038  00000+0  79788-1 0  9994", "line2": "2 66990  20.1261 301.1464 6664534 180.6877 177.6237  2.15443148    32"}}, "geometry": {"type": "Point", "coordinates": [-74.19062875381428, -5.185302644980526]}}, {"type": "Feature", "properties": {"norad_id": 66991, "name": "CZ-3B R/B", "group": "last-30-days", "lat": -7.5604758347001955, "lon": -73.19508431337236, "alt_km": 29862.259965473375, "timestamp": "2025-12-14T09:36:21.781888+00:00", "meta": {"OBJECT_NAME": "CZ-3B R/B", "OBJECT_ID": "2025-290B", "EPOCH": "2025-12-10T06:44:55.577184", "MEAN_MOTION": 2.37676924, "ECCENTRICITY": 0.72420555, "INCLINATION": 28.4645, "RA_OF_ASC_NODE": 302.5976, "ARG_OF_PERICENTER": 179.3847, "MEAN_ANOMALY": 182.8677, "EPHEMERIS_TYPE": 0, "CLASSIFICATION_TYPE": "U", "NORAD_CAT_ID": 66991, "ELEMENT_SET_NO": 999, "REV_AT_EPOCH": 3, "BSTAR": 0.00043781284, "MEAN_MOTION_DOT": 0.00018897, "MEAN_MOTION_DDOT": 4.56211e-07}, "tle": {"line1": "1 66991U 25290B   25344.28119881  .00018897  45621-6  43781-3 0  9998", "line2": "2 66991  28.4645 302.5976 7242055 179.3847 182.8677  2.37676924    36"}}, "geometry": {"type": "Point", "coordinates": [-73.19508431337236, -7.5604758347001955]}}, {"type": "Feature", "properties": {"norad_id": 66993, "name": "2025-292A", "group": "last-30-days", "lat": -15.440270531285794, "lon": 63.06366545050782, "alt_km": 555.6978384416752, "timestamp": "2025-12-14T09:36:21.781899+00:00", "meta": {"OBJECT_NAME": "2025-292A", "OBJECT_ID": "2025-292A", "EPOCH": "2025-12-13T11:19:41.660544", "MEAN_MOTION": 15.04500321, "ECCENTRICITY": 0.00138883, "INCLINATION": 97.6535, "RA_OF_ASC_NODE": 60.0159, "ARG_OF_PERICENTER": 270.3845, "MEAN_ANOMALY": 89.579, "EPHEMERIS_TYPE": 0, "CLASSIFICATION_TYPE": "U", "NORAD_CAT_ID": 66993, "ELEMENT_SET_NO": 999, "REV_AT_EPOCH": 50, "BSTAR": 0.0005300043, "MEAN_MOTION_DOT": 7.377e-05, "MEAN_MOTION_DDOT": 0}, "tle": {"line1": "1 66993U 25292A   25347.47200996  .00007377  00000+0  53000-3 0  9995", "line2": "2 66993  97.6535  60.0159 0013888 270.3845  89.5790 15.04500321   502"}}, "geometry": {"type": "Point", "coordinates": [63.06366545050782, -15.440270531285794]}}, {"type": "Feature", "properties": {"norad_id": 66994, "name": "2025-292B", "group": "last-30-days", "lat": -13.08630108941996, "lon": 62.233127672115195, "alt_km": 516.1691577302117, "timestamp": "2025-12-14T09:36:21.781909+00:00", "meta": {"OBJECT_NAME": "2025-292B", "OBJECT_ID": "2025-292B", "EPOCH": "2025-12-13T14:31:03.978624", "MEAN_MOTION": 15.05128665, "ECCENTRICITY": 0.00630267, "INCLINATION": 98.092, "RA_OF_ASC_NODE": 59.5045, "ARG_OF_PERICENTER": 324.1214, "MEAN_ANOMALY": 35.5786, "EPHEMERIS_TYPE": 0, "CLASSIFICATION_TYPE": "U", "NORAD_CAT_ID": 66994, "ELEMENT_SET_NO": 999, "REV_AT_EPOCH": 52, "BSTAR": 0.00047998473, "MEAN_MOTION_DOT": 7.074e-05, "MEAN_MOTION_DDOT": 0}, "tle": {"line1": "1 66994U 25292B   25347.60490716  .00007074  00000+0  47998-3 0  9995", "line2": "2 66994  98.0920  59.5045 0063026 324.1214  35.5786 15.05128665   526"}}, "geometry": {"type": "Point", "coordinates": [62.233127672115195, -13.08630108941996]}}]}